NORAD_CAT_ID,OBJECT_NAME,OBJECT_TYPE,EPOCH,MEAN_MOTION,ECCENTRICITY,INCLINATION,RA_OF_ASC_NODE,ARG_OF_PERICENTER,MEAN_ANOMALY,BSTAR,MEAN_MOTION_DOT,MEAN_MOTION_DDOT,TLE_LINE0,TLE_LINE1,TLE_LINE2,SEMIMAJOR_AXIS,PERIOD,APOGEE,PERIGEE,DECAYED
51462.0,STARLINK-3166,PAYLOAD,2023-05-01 18:01:26,15.08835208,0.000117,53.2154,281.0624,56.0457,304.0646,2.4135e-05,9.6e-07,0.0,0 STARLINK-3166,1 51462U 22010G   23121.75100073  .00000096  00000-0  24135-4 0  9999,2 51462  53.2154 281.0624 0001170  56.0457 304.0646 15.08835208 69849,6917.895,95.438,540.569,538.951,0.0
51462.0,STARLINK-3166,PAYLOAD,2023-05-01 22:47:35,15.0884472,0.0001018,53.2153,280.1685,67.8177,292.2923,0.00013155,1.807e-05,0.0,0 STARLINK-3166,1 51462U 22010G   23121.94971580  .00001807  00000-0  13155-3 0  9999,2 51462  53.2153 280.1685 0001018  67.8177 292.2923 15.08844720 69873,6917.866,95.437,540.435,539.027,0.0
51462.0,STARLINK-3166,PAYLOAD,2023-05-02 09:55:17,15.08842491,0.0001084,53.2158,278.0872,88.6469,271.4647,-7.1969e-05,-1.433e-05,0.0,0 STARLINK-3166,1 51462U 22010G   23122.41339823 -.00001433  00000-0 -71969-4 0  9995,2 51462  53.2158 278.0872 0001084  88.6469 271.4647 15.08842491 69471,6917.873,95.437,540.488,538.988,0.0
51462.0,STARLINK-3166,PAYLOAD,2023-05-02 17:52:12,15.08852752,0.0001107,53.2169,276.6035,86.4295,273.6824,-0.00012746,-2.316e-05,0.0,0 STARLINK-3166,1 51462U 22010G   23122.74459250 -.00002316  00000-0 -12746-3 0  9996,2 51462  53.2169 276.6035 0001107  86.4295 273.6824 15.08852752 69525,6917.841,95.437,540.472,538.941,0.0
51462.0,STARLINK-3166,PAYLOAD,2023-05-03 09:46:04,15.08830668,6.89e-05,53.2158,273.6246,112.1254,247.9812,-9.7811e-05,-1.843e-05,0.0,0 STARLINK-3166,1 51462U 22010G   23123.40700204 -.00001843  00000-0 -97811-4 0  9999,2 51462  53.2158 273.6246 0000689 112.1254 247.9812 15.08830668 70097,6917.909,95.438,540.251,539.297,0.0
51462.0,STARLINK-3166,PAYLOAD,2023-05-03 17:43:00,15.08843731,9.74e-05,53.2153,272.1396,89.6204,270.49,0.00019484,2.815e-05,0.0,0 STARLINK-3166,1 51462U 22010G   23123.73819907  .00002815  00000-0  19484-3 0  9993,2 51462  53.2153 272.1396 0000974  89.6204 270.4900 15.08843731 70142,6917.869,95.437,540.408,539.06,0.0
51462.0,STARLINK-3166,PAYLOAD,2023-05-04 12:47:38,15.08846025,0.0001105,53.2151,268.5722,77.2484,282.8632,0.00023553,3.463e-05,0.0,0 STARLINK-3166,1 51462U 22010G   23124.53307955  .00003463  00000-0  23553-3 0  9999,2 51462  53.2151 268.5722 0001105  77.2484 282.8632 15.08846025 69799,6917.862,95.437,540.491,538.963,0.0
51462.0,STARLINK-3166,PAYLOAD,2023-05-04 19:09:10,15.08851471,0.0001116,53.2147,267.3821,80.8543,279.2576,0.00037504,5.688e-05,0.0,0 STARLINK-3166,1 51462U 22010G   23124.79803745  .00005688  00000-0  37504-3 0  9997,2 51462  53.2147 267.3821 0001116  80.8543 279.2576 15.08851471 70306,6917.845,95.437,540.482,538.938,0.0
51462.0,STARLINK-3166,PAYLOAD,2023-05-05 03:06:06,15.0884091,0.0001166,53.2164,265.8949,86.5589,273.5537,0.00017277,2.463e-05,0.0,0 STARLINK-3166,1 51462U 22010G   23125.12924079  .00002463  00000-0  17277-3 0  9992,2 51462  53.2164 265.8949 0001166  86.5589 273.5537 15.08840910 70352,6917.878,95.437,540.549,538.936,0.0
51462.0,STARLINK-3166,PAYLOAD,2023-05-05 14:13:48,15.08840007,0.0001165,53.216,263.814,90.5188,269.5938,0.00010603,1.4e-05,0.0,0 STARLINK-3166,1 51462U 22010G   23125.59292215  .00001400  00000-0  10603-3 0  9999,2 51462  53.2160 263.8140 0001165  90.5188 269.5938 15.08840007 69959,6917.88,95.438,540.551,538.939,0.0
51462.0,STARLINK-3166,PAYLOAD,2023-05-06 15:39:57,15.08861425,0.0001105,53.2152,259.0542,95.3838,264.728,0.0005647,8.716e-05,0.0,0 STARLINK-3166,1 51462U 22010G   23126.65275328  .00008716  00000-0  56470-3 0  9992,2 51462  53.2152 259.0542 0001105  95.3838 264.7280 15.08861425 70116,6917.815,95.436,540.444,538.915,0.0
51462.0,STARLINK-3166,PAYLOAD,2023-05-07 01:12:16,15.08848662,0.0001238,53.2155,257.2697,71.8959,288.2167,0.00022141,3.238e-05,0.0,0 STARLINK-3166,1 51462U 22010G   23127.05019534  .00003238  00000-0  22141-3 0  9994,2 51462  53.2155 257.2697 0001238  71.8959 288.2167 15.08848662 70641,6917.854,95.437,540.575,538.862,0.0
51462.0,STARLINK-3166,PAYLOAD,2023-05-07 12:19:59,15.08829562,0.0001446,53.2165,255.1909,102.508,257.6074,-0.00033273,-5.578e-05,0.0,0 STARLINK-3166,1 51462U 22010G   23127.51388277 -.00005578  00000-0 -33273-3 0  9997,2 51462  53.2165 255.1909 0001446 102.5080 257.6074 15.08829562 70716,6917.912,95.438,540.778,538.777,0.0
51462.0,STARLINK-3166,PAYLOAD,2023-05-07 13:55:22,15.08828319,0.0001359,53.2162,254.8945,95.3738,264.7409,-0.00024253,-4.144e-05,0.0,0 STARLINK-3166,1 51462U 22010G   23127.58012278 -.00004144  00000-0 -24253-3 0  9995,2 51462  53.2162 254.8945 0001359  95.3738 264.7409 15.08828319 70250,6917.916,95.438,540.721,538.841,0.0
51462.0,STARLINK-3166,PAYLOAD,2023-05-08 01:03:04,15.08837035,0.0001152,53.2161,252.8141,104.3778,255.7342,0.00036523,5.529e-05,0.0,0 STARLINK-3166,1 51462U 22010G   23128.04380499  .00005529  00000-0  36523-3 0  9999,2 51462  53.2161 252.8141 0001152 104.3778 255.7342 15.08837035 70791,6917.889,95.438,540.551,538.958,0.0
51462.0,STARLINK-3166,PAYLOAD,2023-05-08 16:56:56,15.08854778,0.0001242,53.2167,249.8408,106.4605,253.6523,0.00095781,0.00014995,0.0,0 STARLINK-3166,1 51462U 22010G   23128.70620469  .00014995  00000-0  95781-3 0  9994,2 51462  53.2167 249.8408 0001242 106.4605 253.6523 15.08854778 70422,6917.835,95.437,540.559,538.841,0.0
51462.0,STARLINK-3166,PAYLOAD,2023-05-09 12:01:33,15.08842169,0.0001045,53.2154,246.2719,107.5897,252.5209,0.00024503,3.614e-05,0.0,0 STARLINK-3166,1 51462U 22010G   23129.50108682  .00003614  00000-0  24503-3 0  9991,2 51462  53.2154 246.2719 0001045 107.5897 252.5209 15.08842169 71016,6917.874,95.437,540.462,539.016,0.0
51462.0,STARLINK-3166,PAYLOAD,2023-05-09 13:36:57,15.08841963,0.0001068,53.2157,245.9748,105.3086,254.8025,0.00022664,3.321e-05,0.0,0 STARLINK-3166,1 51462U 22010G   23129.56732699  .00003321  00000-0  22664-3 0  9999,2 51462  53.2157 245.9748 0001068 105.3086 254.8025 15.08841963 70558,6917.874,95.437,540.478,539.001,0.0
51462.0,STARLINK-3166,PAYLOAD,2023-05-10 11:52:21,15.08836686,0.000129,53.2155,241.8112,95.2182,264.8958,0.00011059,1.472e-05,0.0,0 STARLINK-3166,1 51462U 22010G   23130.49468985  .00001472  00000-0  11059-3 0  9998,2 51462  53.2155 241.8112 0001290  95.2182 264.8958 15.08836686 71167,6917.891,95.438,540.648,538.863,0.0
51462.0,STARLINK-3166,PAYLOAD,2023-05-10 19:49:16,15.08849995,0.0001397,53.2162,240.3183,113.4253,246.6886,0.00028368,4.231e-05,0.0,0 STARLINK-3166,1 51462U 22010G   23130.82588441  .00004231  00000-0  28368-3 0  9992,2 51462  53.2162 240.3183 0001397 113.4253 246.6886 15.08849995 71218,6917.85,95.437,540.681,538.748,0.0
51462.0,STARLINK-3166,PAYLOAD,2023-05-11 00:35:25,15.08834401,3e-05,53.2156,239.4305,148.2551,211.8459,-5.5764e-05,-1.175e-05,0.0,0 STARLINK-3166,1 51462U 22010G   23131.02460576 -.00001175  00000-0 -55764-4 0  9990,2 51462  53.2156 239.4305 0000300 148.2551 211.8459 15.08834401 70772,6917.898,95.438,539.97,539.555,0.0
51462.0,STARLINK-3166,PAYLOAD,2023-05-11 13:18:31,15.08848015,9.62e-05,53.2147,237.0522,94.833,265.2772,0.00024599,3.63e-05,0.0,0 STARLINK-3166,1 51462U 22010G   23131.55452663  .00003630  00000-0  24599-3 0  9993,2 51462  53.2147 237.0522 0000962  94.8330 265.2772 15.08848015 71321,6917.856,95.437,540.386,539.055,0.0
51462.0,STARLINK-3166,PAYLOAD,2023-05-12 00:26:13,15.08850176,9.57e-05,53.2135,234.9734,80.5479,279.5621,0.00039753,6.046e-05,0.0,0 STARLINK-3166,1 51462U 22010G   23132.01820654  .00006046  00000-0  39753-3 0  9996,2 51462  53.2135 234.9734 0000957  80.5479 279.5621 15.08850176 70926,6917.849,95.437,540.376,539.052,0.0
51462.0,STARLINK-3166,PAYLOAD,2023-05-13 13:00:05,15.08845054,0.000136,53.2162,228.1291,106.6273,253.4868,0.0001418,1.97e-05,0.0,0 STARLINK-3166,1 51462U 22010G   23133.54172596  .00001970  00000-0  14180-3 0  9998,2 51462  53.2162 228.1291 0001360 106.6273 253.4868 15.08845054 71621,6917.865,95.437,540.671,538.789,0.0
51462.0,STARLINK-3166,PAYLOAD,2023-05-13 17:46:14,15.08851681,0.0001469,53.2166,227.2331,128.0889,232.0236,0.00016858,2.397e-05,0.0,0 STARLINK-3166,1 51462U 22010G   23133.74044033  .00002397  00000-0  16858-3 0  9992,2 51462  53.2166 227.2331 0001469 128.0889 232.0236 15.08851681 71187,6917.845,95.437,540.726,538.693,0.0
51462.0,STARLINK-3166,PAYLOAD,2023-05-14 12:50:52,15.08835403,0.0001223,53.216,223.668,91.8544,268.2588,2.2316e-05,6.7e-07,0.0,0 STARLINK-3166,1 51462U 22010G   23134.53533218  .00000067  00000-0  22316-4 0  9997,2 51462  53.2160 223.6680 0001223  91.8544 268.2588 15.08835403 71771,6917.894,95.438,540.605,538.913,0.0
51462.0,STARLINK-3166,PAYLOAD,2023-05-14 17:37:01,15.08842339,0.000129,53.2163,222.7769,121.8221,238.2897,4.803e-05,4.77e-06,0.0,0 STARLINK-3166,1 51462U 22010G   23134.73404636  .00000477  00000-0  48030-4 0  9996,2 51462  53.2163 222.7769 0001290 121.8221 238.2897 15.08842339 71330,6917.873,95.437,540.631,538.846,0.0
51462.0,STARLINK-3166,PAYLOAD,2023-05-15 12:41:39,15.0884216,9.92e-05,53.2152,219.2108,95.9212,264.1893,9.3463e-05,1.2e-05,0.0,0 STARLINK-3166,1 51462U 22010G   23135.52892908  .00001200  00000-0  93463-4 0  9992,2 51462  53.2152 219.2108 0000992  95.9212 264.1893 15.08842160 71454,6917.874,95.437,540.425,539.053,0.0
51462.0,STARLINK-3166,PAYLOAD,2023-05-16 06:10:54,15.08834489,9.76e-05,53.2146,215.9397,93.7007,266.4097,0.00010275,1.348e-05,0.0,0 STARLINK-3166,1 51462U 22010G   23136.25757679  .00001348  00000-0  10275-3 0  9990,2 51462  53.2146 215.9397 0000976  93.7007 266.4097 15.08834489 72031,6917.897,95.438,540.437,539.087,0.0
51462.0,STARLINK-3166,PAYLOAD,2023-05-16 12:32:26,15.08840165,0.0001058,53.2153,214.7516,105.3428,254.7681,0.00010148,1.328e-05,0.0,0 STARLINK-3166,1 51462U 22010G   23136.52253451  .00001328  00000-0  10148-3 0  9996,2 51462  53.2153 214.7516 0001058 105.3428 254.7681 15.08840165 71607,6917.88,95.438,540.477,539.013,0.0
